[{"OBJECT_NAME":"STARLINK-5034","OBJECT_ID":"2022-119C","EPOCH":"2026-03-09T21:34:02.947008","MEAN_MOTION":15.09373259,"ECCENTRICITY":0.00017229,"INCLINATION":53.2172,"RA_OF_ASC_NODE":323.3584,"ARG_OF_PERICENTER":85.3703,"MEAN_ANOMALY":274.7486,"EPHEMERIS_TYPE":0,"CLASSIFICATION_TYPE":"U","NORAD_CAT_ID":53888,"ELEMENT_SET_NO":999,"REV_AT_EPOCH":19171,"BSTAR":0.0012309623,"MEAN_MOTION_DOT":0.00019646,"MEAN_MOTION_DDOT":0},{"OBJECT_NAME":"CZ-6A DEB","OBJECT_ID":"2022-151RK","EPOCH":"2026-03-09T04:16:52.342176","MEAN_MOTION":15.00981633,"ECCENTRICITY":0.00383954,"INCLINATION":98.6273,"RA_OF_ASC_NODE":143.4522,"ARG_OF_PERICENTER":188.2396,"MEAN_ANOMALY":171.8199,"EPHEMERIS_TYPE":0,"CLASSIFICATION_TYPE":"U","NORAD_CAT_ID":54922,"ELEMENT_SET_NO":999,"REV_AT_EPOCH":17321,"BSTAR":0.0056092635,"MEAN_MOTION_DOT":0.00073321,"MEAN_MOTION_DDOT":0}]
